{
  "type": "FeatureCollection",
  "features": [
    {
      "type": "Feature",
      "properties": {
        "norad_id": 57400,
        "name": "TIANMU-1 08",
        "group": "weather",
        "lat": 14.7773362648191,
        "lon": 46.063557924995685,
        "alt_km": 478.2022488993798,
        "timestamp": "2025-12-24T14:43:28.638903+00:00",
        "meta_object_name": "TIANMU-1 08",
        "meta_object_id": "2023-101B",
        "meta_epoch": "2025-12-24T06:48:08.339040",
        "meta_mean_motion": 15.28213074,
        "meta_eccentricity": 0.00069905,
        "meta_inclination": 97.2845,
        "meta_ra_of_asc_node": 47.6745,
        "meta_arg_of_pericenter": 51.3078,
        "meta_mean_anomaly": 308.8786,
        "meta_ephemeris_type": 0,
        "meta_classification_type": "U",
        "meta_norad_cat_id": 57400,
        "meta_element_set_no": 999,
        "meta_rev_at_epoch": 13491,
        "meta_bstar": 0.00029366725,
        "meta_mean_motion_dot": 8.007e-05,
        "meta_mean_motion_ddot": 0,
        "tle_line1": "1 57400U 23101B   25358.28342985  .00008007  00000+0  29367-3 0  9991",
        "tle_line2": "2 57400  97.2845  47.6745 0006990  51.3078 308.8786 15.28213074134915"
      },
      "geometry": {
        "type": "Point",
        "coordinates": [
          46.063557924995685,
          14.7773362648191
        ]
      }
    },
    {
      "type": "Feature",
      "properties": {
        "norad_id": 57401,
        "name": "TIANMU-1 09",
        "group": "weather",
        "lat": 82.66316543400887,
        "lon": -35.65448098536235,
        "alt_km": 470.17905094750313,
        "timestamp": "2025-12-24T14:43:28.638921+00:00",
        "meta_object_name": "TIANMU-1 09",
        "meta_object_id": "2023-101C",
        "meta_epoch": "2025-12-24T08:03:02.854944",
        "meta_mean_motion": 15.28248902,
        "meta_eccentricity": 0.00062617,
        "meta_inclination": 97.2801,
        "meta_ra_of_asc_node": 47.2326,
        "meta_arg_of_pericenter": 52.1246,
        "meta_mean_anomaly": 308.0559,
        "meta_ephemeris_type": 0,
        "meta_classification_type": "U",
        "meta_norad_cat_id": 57401,
        "meta_element_set_no": 999,
        "meta_rev_at_epoch": 13492,
        "meta_bstar": 0.0002893841,
        "meta_mean_motion_dot": 7.897e-05,
        "meta_mean_motion_ddot": 0,
        "tle_line1": "1 57401U 23101C   25358.33544971  .00007897  00000+0  28938-3 0  9996",
        "tle_line2": "2 57401  97.2801  47.2326 0006261  52.1246 308.0559 15.28248902134925"
      },
      "geometry": {
        "type": "Point",
        "coordinates": [
          -35.65448098536235,
          82.66316543400887
        ]
      }
    },
    {
      "type": "Feature",
      "properties": {
        "norad_id": 57402,
        "name": "TIANMU-1 10",
        "group": "weather",
        "lat": -78.14305727509203,
        "lon": -169.19336539165278,
        "alt_km": 493.0649883803244,
        "timestamp": "2025-12-24T14:43:28.638937+00:00",
        "meta_object_name": "TIANMU-1 10",
        "meta_object_id": "2023-101D",
        "meta_epoch": "2025-12-24T07:18:06.852672",
        "meta_mean_motion": 15.28239796,
        "meta_eccentricity": 0.0007997,
        "meta_inclination": 97.2882,
        "meta_ra_of_asc_node": 48.0643,
        "meta_arg_of_pericenter": 49.5905,
        "meta_mean_anomaly": 310.6032,
        "meta_ephemeris_type": 0,
        "meta_classification_type": "U",
        "meta_norad_cat_id": 57402,
        "meta_element_set_no": 999,
        "meta_rev_at_epoch": 13491,
        "meta_bstar": 0.00029633065,
        "meta_mean_motion_dot": 8.089e-05,
        "meta_mean_motion_ddot": 0,
        "tle_line1": "1 57402U 23101D   25358.30424598  .00008089  00000+0  29633-3 0  9993",
        "tle_line2": "2 57402  97.2882  48.0643 0007997  49.5905 310.6032 15.28239796134910"
      },
      "geometry": {
        "type": "Point",
        "coordinates": [
          -169.19336539165278,
          -78.14305727509203
        ]
      }
    },
    {
      "type": "Feature",
      "properties": {
        "norad_id": 57490,
        "name": "FENGYUN 3F",
        "group": "weather",
        "lat": -39.92517634018195,
        "lon": -120.6535625744488,
        "alt_km": 832.3115641885233,
        "timestamp": "2025-12-24T14:43:28.638953+00:00",
        "meta_object_name": "FENGYUN 3F",
        "meta_object_id": "2023-111A",
        "meta_epoch": "2025-12-24T06:55:30.096192",
        "meta_mean_motion": 14.19896507,
        "meta_eccentricity": 8.203e-05,
        "meta_inclination": 98.7068,
        "meta_ra_of_asc_node": 66.3949,
        "meta_arg_of_pericenter": 116.7427,
        "meta_mean_anomaly": 243.3833,
        "meta_ephemeris_type": 0,
        "meta_classification_type": "U",
        "meta_norad_cat_id": 57490,
        "meta_element_set_no": 999,
        "meta_rev_at_epoch": 12404,
        "meta_bstar": 5.983933e-05,
        "meta_mean_motion_dot": 8.3e-07,
        "meta_mean_motion_ddot": 0,
        "tle_line1": "1 57490U 23111A   25358.28854278  .00000083  00000+0  59839-4 0  9998",
        "tle_line2": "2 57490  98.7068  66.3949 0000820 116.7427 243.3833 14.19896507124047"
      },
      "geometry": {
        "type": "Point",
        "coordinates": [
          -120.6535625744488,
          -39.92517634018195
        ]
      }
    },
    {
      "type": "Feature",
      "properties": {
        "norad_id": 58584,
        "name": "ARKTIKA-M 2",
        "group": "weather",
        "lat": 58.40528224770637,
        "lon": -61.61243250042166,
        "alt_km": 33488.92690776385,
        "timestamp": "2025-12-24T14:43:28.638974+00:00",
        "meta_object_name": "ARKTIKA-M 2",
        "meta_object_id": "2023-198A",
        "meta_epoch": "2025-12-23T19:04:51.780000",
        "meta_mean_motion": 2.00602438,
        "meta_eccentricity": 0.68658211,
        "meta_inclination": 63.2256,
        "meta_ra_of_asc_node": 173.6885,
        "meta_arg_of_pericenter": 268.0594,
        "meta_mean_anomaly": 18.8414,
        "meta_ephemeris_type": 0,
        "meta_classification_type": "U",
        "meta_norad_cat_id": 58584,
        "meta_element_set_no": 999,
        "meta_rev_at_epoch": 1480,
        "meta_bstar": 0,
        "meta_mean_motion_dot": 2.16e-06,
        "meta_mean_motion_ddot": 0,
        "tle_line1": "1 58584U 23198A   25357.79504375  .00000216  00000+0  00000+0 0  9992",
        "tle_line2": "2 58584  63.2256 173.6885 6865821 268.0594  18.8414  2.00602438 14808"
      },
      "geometry": {
        "type": "Point",
        "coordinates": [
          -61.61243250042166,
          58.40528224770637
        ]
      }
    },
    {
      "type": "Feature",
      "properties": {
        "norad_id": 58645,
        "name": "TIANMU-1 11",
        "group": "weather",
        "lat": -67.94901473063355,
        "lon": 36.635620257112414,
        "alt_km": 494.42120127458475,
        "timestamp": "2025-12-24T14:43:28.638993+00:00",
        "meta_object_name": "TIANMU-1 11",
        "meta_object_id": "2023-205A",
        "meta_epoch": "2025-12-24T07:09:07.466112",
        "meta_mean_motion": 15.24734055,
        "meta_eccentricity": 0.00075408,
        "meta_inclination": 97.3595,
        "meta_ra_of_asc_node": 17.718,
        "meta_arg_of_pericenter": 260.8843,
        "meta_mean_anomaly": 99.1542,
        "meta_ephemeris_type": 0,
        "meta_classification_type": "U",
        "meta_norad_cat_id": 58645,
        "meta_element_set_no": 999,
        "meta_rev_at_epoch": 11085,
        "meta_bstar": 0.00026038047,
        "meta_mean_motion_dot": 6.38e-05,
        "meta_mean_motion_ddot": 0,
        "tle_line1": "1 58645U 23205A   25358.29800308  .00006380  00000+0  26038-3 0  9991",
        "tle_line2": "2 58645  97.3595  17.7180 0007540 260.8843  99.1542 15.24734055110850"
      },
      "geometry": {
        "type": "Point",
        "coordinates": [
          36.635620257112414,
          -67.94901473063355
        ]
      }
    },
    {
      "type": "Feature",
      "properties": {
        "norad_id": 58646,
        "name": "TIANMU-1 12",
        "group": "weather",
        "lat": 41.42815487297738,
        "lon": -155.62201169182754,
        "alt_km": 489.328837414394,
        "timestamp": "2025-12-24T14:43:28.639008+00:00",
        "meta_object_name": "TIANMU-1 12",
        "meta_object_id": "2023-205B",
        "meta_epoch": "2025-12-24T07:49:11.407008",
        "meta_mean_motion": 15.24621584,
        "meta_eccentricity": 0.00059469,
        "meta_inclination": 97.3584,
        "meta_ra_of_asc_node": 17.5469,
        "meta_arg_of_pericenter": 238.57,
        "meta_mean_anomaly": 121.4957,
        "meta_ephemeris_type": 0,
        "meta_classification_type": "U",
        "meta_norad_cat_id": 58646,
        "meta_element_set_no": 999,
        "meta_rev_at_epoch": 11084,
        "meta_bstar": 0.00027817535,
        "meta_mean_motion_dot": 6.796e-05,
        "meta_mean_motion_ddot": 0,
        "tle_line1": "1 58646U 23205B   25358.32582647  .00006796  00000+0  27818-3 0  9997",
        "tle_line2": "2 58646  97.3584  17.5469 0005946 238.5700 121.4957 15.24621584110849"
      },
      "geometry": {
        "type": "Point",
        "coordinates": [
          -155.62201169182754,
          41.42815487297738
        ]
      }
    }
  ]
}